$$SOE
2460721.500000000, A.D. 2025-Feb-15 00:00:00.0000, 2.427638343361039E+08, -3.199281787292597E+08, -1.083348474491060E+07,
2460728.500000000, A.D. 2025-Feb-22 00:00:00.0000, 2.509129212827982E+08, -3.134681759318155E+08, -9.425613622195318E+06,
2460735.500000000, A.D. 2025-Mar-01 00:00:00.0000, 2.588740067194105E+08, -3.067733546682653E+08, -8.010680211566269E+06,
2460742.500000000, A.D. 2025-Mar-08 00:00:00.0000, 2.666409142630396E+08, -2.998484771396684E+08, -6.589738457405925E+06,
2460749.500000000, A.D. 2025-Mar-15 00:00:00.0000, 2.742075611357022E+08, -2.926984425794941E+08, -5.163848163036153E+06,
2460756.500000000, A.D. 2025-Mar-22 00:00:00.0000, 2.815679575071580E+08, -2.853282868713284E+08, -3.734074607031271E+06,
2460763.500000000, A.D. 2025-Mar-29 00:00:00.0000, 2.887162073238253E+08, -2.777431844966342E+08, -2.301488465396076E+06,
2460770.500000000, A.D. 2025-Apr-05 00:00:00.0000, 2.956465109567426E+08, -2.699484496669650E+08, -8.671658120631278E+05,
2460777.500000000, A.D. 2025-Apr-12 00:00:00.0000, 3.023531677505026E+08, -2.619495365305713E+08, 5.678119884699583E+05,
2460784.500000000, A.D. 2025-Apr-19 00:00:00.0000, 3.088305782930982E+08, -2.537520393281296E+08, 2.002358442577571E+06,
2460791.500000000, A.D. 2025-Apr-26 00:00:00.0000, 3.150732466852661E+08, -2.453616926932428E+08, 3.435382102622345E+06,
2460798.500000000, A.D. 2025-May-03 00:00:00.0000, 3.210757829299939E+08, -2.367843720707460E+08, 4.865786748094201E+06,
2460805.500000000, A.D. 2025-May-10 00:00:00.0000, 3.268329054776632E+08, -2.280260942361839E+08, 6.292471572149724E+06,
2460812.500000000, A.D. 2025-May-17 00:00:00.0000, 3.323394439698074E+08, -2.190930179490846E+08, 7.714331368130744E+06,
2460819.500000000, A.D. 2025-May-24 00:00:00.0000, 3.375903423610160E+08, -2.099914447846987E+08, 9.130256696887538E+06,
2460826.500000000, A.D. 2025-May-31 00:00:00.0000, 3.425806628436720E+08, -2.007278198220900E+08, 1.053913402342276E+07,
2460833.500000000, A.D. 2025-Jun-07 00:00:00.0000, 3.473055901842068E+08, -1.913087309742466E+08, 1.193984596015047E+07,
2460840.500000000, A.D. 2025-Jun-14 00:00:00.0000, 3.517604341149116E+08, -1.817409076204340E+08, 1.333127178147721E+07,
2460847.500000000, A.D. 2025-Jun-21 00:00:00.0000, 3.559406310013368E+08, -1.720312218038088E+08, 1.471228783247179E+07,
2460854.500000000, A.D. 2025-Jun-28 00:00:00.0000, 3.598417479144300E+08, -1.621866902171434E+08, 1.608176769016506E+07,
2460861.500000000, A.D. 2025-Jul-05 00:00:00.0000, 3.634594875927347E+08, -1.522144748060971E+08, 1.743858239403832E+07,
2460868.500000000, A.D. 2025-Jul-12 00:00:00.0000, 3.667896931066727E+08, -1.421218827796983E+08, 1.878160079023664E+07,
2460875.500000000, A.D. 2025-Jul-19 00:00:00.0000, 3.698283524197638E+08, -1.319163665859885E+08, 2.010968992646558E+07,
2460882.500000000, A.D. 2025-Jul-26 00:00:00.0000, 3.725716030648972E+08, -1.216055238930143E+08, 2.142171547574875E+07,
2460889.500000000, A.D. 2025-Aug-02 00:00:00.0000, 3.750157370101218E+08, -1.111970975392346E+08, 2.271654218757075E+07,
2460896.500000000, A.D. 2025-Aug-09 00:00:00.0000, 3.771572057448065E+08, -1.006989754550074E+08, 2.399303436606698E+07,
2460903.500000000, A.D. 2025-Aug-16 00:00:00.0000, 3.789926256674253E+08, -9.011919060520436E+07, 2.525005636577765E+07,
2460910.500000000, A.D. 2025-Aug-23 00:00:00.0000, 3.805187840681071E+08, -7.946592092139396E+07, 2.648647308158063E+07,
2460917.500000000, A.D. 2025-Aug-30 00:00:00.0000, 3.817326460334542E+08, -6.874748849071006E+07, 2.770115046278784E+07,
2460924.500000000, A.D. 2025-Sep-06 00:00:00.0000, 3.826313608572015E+08, -5.797235698065452E+07, 2.889295626588574E+07,
2460931.500000000, A.D. 2025-Sep-13 00:00:00.0000, 3.832122662883922E+08, -4.714912976528735E+07, 3.006076099914230E+07,
2460938.500000000, A.D. 2025-Sep-20 00:00:00.0000, 3.834728938859099E+08, -3.628655037879059E+07, 3.120343862593292E+07,
2460945.500000000, A.D. 2025-Sep-27 00:00:00.0000, 3.834109765310712E+08, -2.539350216137324E+07, 3.231986718504444E+07,
2460952.500000000, A.D. 2025-Oct-04 00:00:00.0000, 3.830244560773284E+08, -1.447900653309659E+07, 3.340892955868287E+07,
2460959.500000000, A.D. 2025-Oct-11 00:00:00.0000, 3.823114907600493E+08, -3.552220813320244E+06, 3.446951434737068E+07,
2460966.500000000, A.D. 2025-Oct-18 00:00:00.0000, 3.812704626462416E+08, 7.377564165352809E+06, 3.550051680541524E+07,
2460973.500000000, A.D. 2025-Oct-25 00:00:00.0000, 3.798999852589996E+08, 1.830092668520109E+07, 3.650083982729740E+07,
2460980.500000000, A.D. 2025-Nov-01 00:00:00.0000, 3.781989114097451E+08, 2.920831705460497E+07, 3.746939498488446E+07,
2460987.500000000, A.D. 2025-Nov-08 00:00:00.0000, 3.761663412644078E+08, 4.009006079662756E+07, 3.840510361187084E+07,
2460994.500000000, A.D. 2025-Nov-15 00:00:00.0000, 3.738016307806454E+08, 5.093636208199949E+07, 3.930689791894111E+07,
2461001.500000000, A.D. 2025-Nov-22 00:00:00.0000, 3.711044009038528E+08, 6.173730765177435E+07, 4.017372212169547E+07,
2461008.500000000, A.D. 2025-Nov-29 00:00:00.0000, 3.680745473480768E+08, 7.248287239213192E+07, 4.100453368826832E+07,
2461015.500000000, A.D. 2025-Dec-06 00:00:00.0000, 3.647122486651704E+08, 8.316292645719956E+07, 4.179830490584193E+07,
2461022.500000000, A.D. 2025-Dec-13 00:00:00.0000, 3.610179730202130E+08, 9.376724059818661E+07, 4.255402445302305E+07,
2461029.500000000, A.D. 2025-Dec-20 00:00:00.0000, 3.569924871422834E+08, 1.042854907472149E+08, 4.327069874129746E+07,
2461036.500000000, A.D. 2025-Dec-27 00:00:00.0000, 3.526368663467509E+08, 1.147072644754374E+08, 4.394735333533066E+07,
2461043.500000000, A.D. 2026-Jan-03 00:00:00.0000, 3.479525041398596E+08, 1.250220687391991E+08, 4.458303453579217E+07,
2461050.500000000, A.D. 2026-Jan-10 00:00:00.0000, 3.429411214835122E+08, 1.352193382635584E+08, 4.517681105918064E+07,
2461057.500000000, A.D. 2026-Jan-17 00:00:00.0000, 3.376047759176335E+08, 1.452884444988220E+08, 4.572777578543705E+07,
2461064.500000000, A.D. 2026-Jan-24 00:00:00.0000, 3.319458705794423E+08, 1.552187051990259E+08, 4.623504756725226E+07,
2461071.500000000, A.D. 2026-Jan-31 00:00:00.0000, 3.259671631011444E+08, 1.649993946401473E+08, 4.669777309714513E+07,
2461078.500000000, A.D. 2026-Feb-07 00:00:00.0000, 3.196717744026539E+08, 1.746197544446932E+08, 4.711512882055277E+07,
2461085.500000000, A.D. 2026-Feb-14 00:00:00.0000, 3.130631975852745E+08, 1.840690050195216E+08, 4.748632286881845E+07,
2461092.500000000, A.D. 2026-Feb-21 00:00:00.0000, 3.061453072637951E+08, 1.933363582016566E+08, 4.781059702111266E+07,
2461099.500000000, A.D. 2026-Feb-28 00:00:00.0000, 2.989223681940306E+08, 2.024110322785477E+08, 4.808722888469078E+07,
2461106.500000000, A.D. 2026-Mar-07 00:00:00.0000, 2.913990410762887E+08, 2.112822674481935E+08, 4.831553431964721E+07,
2461113.500000000, A.D. 2026-Mar-14 00:00:00.0000, 2.835803882562290E+08, 2.199393393969903E+08, 4.849486966029409E+07,
2461120.500000000, A.D. 2026-Mar-21 00:00:00.0000, 2.754718810430132E+08, 2.283715738902249E+08, 4.862463379940619E+07,
2461127.500000000, A.D. 2026-Mar-28 00:00:00.0000, 2.670794065605828E+08, 2.365683633969846E+08, 4.870427039434026E+07,
2461134.500000000, A.D. 2026-Apr-04 00:00:00.0000, 2.584092734501926E+08, 2.445191847769265E+08, 4.873327016239953E+07,
2461141.500000000, A.D. 2026-Apr-11 00:00:00.0000, 2.494682166198694E+08, 2.522136176611367E+08, 4.871117320291439E+07,
2461148.500000000, A.D. 2026-Apr-18 00:00:00.0000, 2.402634011244777E+08, 2.596413635092908E+08, 4.863757132418309E+07,
2461155.500000000, A.D. 2026-Apr-25 00:00:00.0000, 2.308024251494300E+08, 2.667922653392658E+08, 4.851211036559525E+07,
2461162.500000000, A.D. 2026-May-02 00:00:00.0000, 2.210933220558982E+08, 2.736563280709884E+08, 4.833449250144191E+07,
2461169.500000000, A.D. 2026-May-09 00:00:00.0000, 2.111445615369379E+08, 2.802237393802750E+08, 4.810447849927925E+07,
2461176.500000000, A.D. 2026-May-16 00:00:00.0000, 2.009650501857957E+08, 2.864848911556309E+08, 4.782188989781357E+07,
2461183.500000000, A.D. 2026-May-23 00:00:00.0000, 1.905641314529065E+08, 2.924304025263727E+08, 4.748661117011689E+07,
2461190.500000000, A.D. 2026-May-30 00:00:00.0000, 1.799515828349854E+08, 2.980511447136475E+08, 4.709859207337129E+07,
2461197.500000000, A.D. 2026-Jun-06 00:00:00.0000, 1.691376098965203E+08, 3.033382643599945E+08, 4.665784993203565E+07,
2461204.500000000, A.D. 2026-Jun-13 00:00:00.0000, 1.581328407210391E+08, 3.082832054666677E+08, 4.616447152204630E+07,
2461211.500000000, A.D. 2026-Jun-20 00:00:00.0000, 1.469483202288984E+08, 3.128777327773719E+08, 4.561861482556935E+07,
2461218.500000000, A.D. 2026-Jun-27 00:00:00.0000, 1.355955025995607E+08, 3.171139561699436E+08, 4.502051076757120E+07,
2461225.500000000, A.D. 2026-Jul-04 00:00:00.0000, 1.240862417409732E+08, 3.209843551773328E+08, 4.437046485479812E+07,
2461232.500000000, A.D. 2026-Jul-11 00:00:00.0000, 1.124327800111948E+08, 3.244818033949369E+08, 4.366885866704939E+07,
2461239.500000000, A.D. 2026-Jul-18 00:00:00.0000, 1.006477352447114E+08, 3.275995926811187E+08, 4.291615117820193E+07,
2461246.500000000, A.D. 2026-Jul-25 00:00:00.0000, 8.874408607677811E+07, 3.303314570274012E+08, 4.211287988891578E+07,
2461253.500000000, A.D. 2026-Aug-01 00:00:00.0000, 7.673515559282465E+07, 3.326715959174337E+08, 4.125966174691407E+07,
2461260.500000000, A.D. 2026-Aug-08 00:00:00.0000, 6.463459350751623E+07, 3.346146970006868E+08, 4.035719381700069E+07,
2461267.500000000, A.D. 2026-Aug-15 00:00:00.0000, 5.245635729007468E+07, 3.361559583902280E+08, 3.940625368535826E+07,
2461274.500000000, A.D. 2026-Aug-22 00:00:00.0000, 4.021469149198429E+07, 3.372911116633127E+08, 3.840769975442401E+07,
2461281.500000000, A.D. 2026-Aug-29 00:00:00.0000, 2.792410302068914E+07, 3.380164440387557E+08, 3.736247151207551E+07,
2461288.500000000, A.D. 2026-Sep-05 00:00:00.0000, 1.559933452972332E+07, 3.383288167054949E+08, 3.627158933280332E+07,
$$EOE